[{"OBJECT_NAME":"STARLINK-4277","OBJECT_ID":"2022-076Z","EPOCH":"2026-03-09T10:33:41.985792","MEAN_MOTION":15.0883725,"ECCENTRICITY":0.0001461,"INCLINATION":53.2171,"RA_OF_ASC_NODE":85.2397,"ARG_OF_PERICENTER":93.6463,"MEAN_ANOMALY":266.4696,"EPHEMERIS_TYPE":0,"CLASSIFICATION_TYPE":"U","NORAD_CAT_ID":53009,"ELEMENT_SET_NO":999,"REV_AT_EPOCH":20294,"BSTAR":-1.054819e-5,"MEAN_MOTION_DOT":-4.56e-6,"MEAN_MOTION_DDOT":0},{"OBJECT_NAME":"THOR ABLESTAR DEB","OBJECT_ID":"1961-015HM","EPOCH":"2026-03-09T12:53:31.788672","MEAN_MOTION":15.12609006,"ECCENTRICITY":0.0020802,"INCLINATION":66.4912,"RA_OF_ASC_NODE":108.7707,"ARG_OF_PERICENTER":275.236,"MEAN_ANOMALY":209.827,"EPHEMERIS_TYPE":0,"CLASSIFICATION_TYPE":"U","NORAD_CAT_ID":660,"ELEMENT_SET_NO":999,"REV_AT_EPOCH":37032,"BSTAR":0.0020976473,"MEAN_MOTION_DOT":0.00036985,"MEAN_MOTION_DDOT":0}]
